{"fetched_at":"2026-03-30T06:02:59Z","count":15439,"tles":[{"name":"STARLINK-30409","line1":"1 57820U 23138N   26087.79682499  .00012666  00000+0  48047-3 0  9992","line2":"2 57820  42.9991 125.9779 0002048 270.5184  89.5432 15.26780269141608","category":"Starlink"}]}