{
  "norad_id": 57820,
  "name": "STARLINK-30409",
  "history": [
    {
      "epoch": "2026-03-28T19:07:25.679136Z",
      "apogee_km": 486.85055377123444,
      "perigee_km": 484.0390933846602,
      "latitude_deg": -4.088740666474583e-05,
      "longitude_deg": 12.908737559797093,
      "height_km": 485.20929905560763,
      "semi_major_axis_km": 6863.581823577947,
      "eccentricity": 0.00020481,
      "inclination_deg": 42.9991,
      "raan_deg": 125.9779,
      "arg_perigee_deg": 270.5184,
      "mean_anomaly_deg": 89.5432,
      "mean_motion_rev_day": 15.26780269
    }
  ]
}